{
    "links": {
        "self": "http://www.neowsapp.com/rest/v1/neo/3735649?api_key=iIulBulltgU6a56xZRHN4H3l9WmuAYTsLGpBGhQ2"
    },
    "id": "3735649",
    "neo_reference_id": "3735649",
    "name": "(2015 XF1)",
    "designation": "2015 XF1",
    "nasa_jpl_url": "http://ssd.jpl.nasa.gov/sbdb.cgi?sstr=3735649",
    "absolute_magnitude_h": 23.2,
    "estimated_diameter": {
        "kilometers": {
            "estimated_diameter_min": 0.0608912622,
            "estimated_diameter_max": 0.1361570015
        },
        "meters": {
            "estimated_diameter_min": 60.8912622106,
            "estimated_diameter_max": 136.1570015386
        },
        "miles": {
            "estimated_diameter_min": 0.0378360645,
            "estimated_diameter_max": 0.0846040122
        },
        "feet": {
            "estimated_diameter_min": 199.7744887109,
            "estimated_diameter_max": 446.7093369279
        }
    },
    "is_potentially_hazardous_asteroid": false,
    "close_approach_data": [
        {
            "close_approach_date": "2015-12-03",
            "close_approach_date_full": "2015-Dec-03 13:29",
            "epoch_date_close_approach": 1449149340000,
            "relative_velocity": {
                "kilometers_per_second": "8.8816964583",
                "kilometers_per_hour": "31974.1072497022",
                "miles_per_hour": "19867.4668074608"
            },
            "miss_distance": {
                "astronomical": "0.2744739869",
                "lunar": "106.7703809041",
                "kilometers": "41060723.810647903",
                "miles": "25513950.6783229414"
            },
            "orbiting_body": "Earth"
        }
    ],
    "orbital_data": {
        "orbit_id": "5",
        "orbit_determination_date": "2017-04-06 08:30:18",
        "first_observation_date": "2015-12-02",
        "last_observation_date": "2015-12-16",
        "data_arc_in_days": 14,
        "observations_used": 17,
        "orbit_uncertainty": "7",
        "minimum_orbit_intersection": ".249272",
        "jupiter_tisserand_invariant": "3.802",
        "epoch_osculation": "2459000.5",
        "eccentricity": ".3741602437129157",
        "semi_major_axis": "1.907687266313755",
        "inclination": "16.83873777898639",
        "ascending_node_longitude": "238.2833898090701",
        "orbital_period": "962.4079417112288",
        "perihelion_distance": "1.193906533821775",
        "perihelion_argument": "218.1714103420358",
        "aphelion_distance": "2.621467998805736",
        "perihelion_time": "2459319.855581721006",
        "mean_anomaly": "240.5412918609742",
        "mean_motion": ".3740617511529412",
        "equinox": "J2000",
        "orbit_class": {
            "orbit_class_type": "AMO",
            "orbit_class_description": "Near-Earth asteroid orbits similar to that of 1221 Amor",
            "orbit_class_range": "1.017 AU < q (perihelion) < 1.3 AU"
        }
    },
    "is_sentry_object": false
}